COSMOS 1933             
1 18958U 88020A   26030.42096866  .00005723  00000+0  28292-3 0  9993
2 18958  82.5142 288.7686 0004130 357.7324   2.3890 15.17644933 44428
SL-3 R/B                
1 19046U 88032B   26030.47587213  .00008335  00000+0  39332-3 0  9990
2 19046  97.5129  13.8943 0026654  11.7159 348.4690 15.19394094 46302
SL-16 R/B               
1 19120U 88039B   26030.43716587  .00000174  00000+0  10508-3 0  9991
2 19120  71.0152 149.4335 0020472  33.5434 326.6983 14.19609848952954
COSMOS 1953             
1 19210U 88050A   26030.51538923  .00012230  00000+0  44958-3 0  9991
2 19210  82.5074 196.6114 0010375 258.0437 101.9639 15.27723322 31955
SL-8 R/B                
1 19257U 88053B   26030.48608594  .00000315  00000+0  11045-3 0  9995
2 19257  74.0470 182.8773 0019968   9.7129  46.4066 14.38891660971105
COSMOS 1975             
1 19573U 88093A   26030.40805823  .00012970  00000+0  48201-3 0  9990
2 19573  82.5220 156.0798 0010623 308.5797  51.4489 15.27364796 13569
SL-14 R/B               
1 19574U 88093B   26030.39627909  .00000633  00000+0  70069-4 0  9997
2 19574  82.5287  78.0017 0021197 160.8735 209.7150 14.85613693995354
SL-16 R/B               
1 19650U 88102B   26029.98500429 -.00000204  00000+0 -79155-4 0  9994
2 19650  70.9973 232.9324 0012026  65.9286 294.3094 14.16147078921417
INTERCOSMOS 24          
1 20261U 89080A   26030.35953433  .00000613  00000+0  17487-3 0  9991
2 20261  82.6076 129.3476 1188552  21.7995 342.9583 12.59506707661972
SL-14 R/B               
1 20262U 89080C   26030.46796348  .00000387  00000+0  11766-3 0  9996
2 20262  82.5931 197.7256 1229436 272.1711  73.9436 12.50450152655370
DELTA 1 R/B             
1 20323U 89089B   26030.47655100  .00000600  00000+0  15732-3 0  9999
2 20323  97.0731 243.9858 0067729 242.9689 116.4585 14.50628381890194
ARIANE 40 R/B           
1 20443U 90005H   26030.17615104  .00000415  00000+0  14554-3 0  9994
2 20443  98.3166  91.9691 0009354 325.8683  34.1904 14.39843070887260
