CCSDS_OMM_VERS = 2.0
CREATION_DATE  = 
ORIGINATOR     = 

OBJECT_NAME    = COSMOS 1933
OBJECT_ID      = 1988-020A
CENTER_NAME    = EARTH
REF_FRAME      = TEME
TIME_SYSTEM    = UTC
MEAN_ELEMENT_THEORY = SGP/SGP4

EPOCH          = 2026-01-30T10:06:11.692224
MEAN_MOTION    = 15.17644933
ECCENTRICITY   = .000413
INCLINATION    = 82.5142
RA_OF_ASC_NODE = 288.7686
ARG_OF_PERICENTER = 357.7324
MEAN_ANOMALY   = 2.3890

EPHEMERIS_TYPE = 0
CLASSIFICATION_TYPE = U
NORAD_CAT_ID   = 18958
ELEMENT_SET_NO = 999
REV_AT_EPOCH   = 4442
BSTAR          = .28292E-3
MEAN_MOTION_DOT = .5723E-4
MEAN_MOTION_DDOT = 0

CCSDS_OMM_VERS = 2.0
CREATION_DATE  = 
ORIGINATOR     = 

OBJECT_NAME    = SL-3 R/B
OBJECT_ID      = 1988-032B
CENTER_NAME    = EARTH
REF_FRAME      = TEME
TIME_SYSTEM    = UTC
MEAN_ELEMENT_THEORY = SGP/SGP4

EPOCH          = 2026-01-30T11:25:15.352032
MEAN_MOTION    = 15.19394094
ECCENTRICITY   = .0026654
INCLINATION    = 97.5129
RA_OF_ASC_NODE = 13.8943
ARG_OF_PERICENTER = 11.7159
MEAN_ANOMALY   = 348.4690

EPHEMERIS_TYPE = 0
CLASSIFICATION_TYPE = U
NORAD_CAT_ID   = 19046
ELEMENT_SET_NO = 999
REV_AT_EPOCH   = 4630
BSTAR          = .39332E-3
MEAN_MOTION_DOT = .8335E-4
MEAN_MOTION_DDOT = 0

CCSDS_OMM_VERS = 2.0
CREATION_DATE  = 
ORIGINATOR     = 

OBJECT_NAME    = SL-16 R/B
OBJECT_ID      = 1988-039B
CENTER_NAME    = EARTH
REF_FRAME      = TEME
TIME_SYSTEM    = UTC
MEAN_ELEMENT_THEORY = SGP/SGP4

EPOCH          = 2026-01-30T10:29:31.131168
MEAN_MOTION    = 14.19609848
ECCENTRICITY   = .0020472
INCLINATION    = 71.0152
RA_OF_ASC_NODE = 149.4335
ARG_OF_PERICENTER = 33.5434
MEAN_ANOMALY   = 326.6983

EPHEMERIS_TYPE = 0
CLASSIFICATION_TYPE = U
NORAD_CAT_ID   = 19120
ELEMENT_SET_NO = 999
REV_AT_EPOCH   = 95295
BSTAR          = .10508E-3
MEAN_MOTION_DOT = .174E-5
MEAN_MOTION_DDOT = 0

CCSDS_OMM_VERS = 2.0
CREATION_DATE  = 
ORIGINATOR     = 

OBJECT_NAME    = COSMOS 1953
OBJECT_ID      = 1988-050A
CENTER_NAME    = EARTH
REF_FRAME      = TEME
TIME_SYSTEM    = UTC
MEAN_ELEMENT_THEORY = SGP/SGP4

EPOCH          = 2026-01-30T12:22:09.629472
MEAN_MOTION    = 15.27723322
ECCENTRICITY   = .0010375
INCLINATION    = 82.5074
RA_OF_ASC_NODE = 196.6114
ARG_OF_PERICENTER = 258.0437
MEAN_ANOMALY   = 101.9639

EPHEMERIS_TYPE = 0
CLASSIFICATION_TYPE = U
NORAD_CAT_ID   = 19210
ELEMENT_SET_NO = 999
REV_AT_EPOCH   = 3195
BSTAR          = .44958E-3
MEAN_MOTION_DOT = .1223E-3
MEAN_MOTION_DDOT = 0

CCSDS_OMM_VERS = 2.0
CREATION_DATE  = 
ORIGINATOR     = 

OBJECT_NAME    = SL-8 R/B
OBJECT_ID      = 1988-053B
CENTER_NAME    = EARTH
REF_FRAME      = TEME
TIME_SYSTEM    = UTC
MEAN_ELEMENT_THEORY = SGP/SGP4

EPOCH          = 2026-01-30T11:39:57.825216
MEAN_MOTION    = 14.38891660
ECCENTRICITY   = .0019968
INCLINATION    = 74.0470
RA_OF_ASC_NODE = 182.8773
ARG_OF_PERICENTER = 9.7129
MEAN_ANOMALY   = 46.4066

EPHEMERIS_TYPE = 0
CLASSIFICATION_TYPE = U
NORAD_CAT_ID   = 19257
ELEMENT_SET_NO = 999
REV_AT_EPOCH   = 97110
BSTAR          = .11045E-3
MEAN_MOTION_DOT = .315E-5
MEAN_MOTION_DDOT = 0

CCSDS_OMM_VERS = 2.0
CREATION_DATE  = 
ORIGINATOR     = 

OBJECT_NAME    = COSMOS 1975
OBJECT_ID      = 1988-093A
CENTER_NAME    = EARTH
REF_FRAME      = TEME
TIME_SYSTEM    = UTC
MEAN_ELEMENT_THEORY = SGP/SGP4

EPOCH          = 2026-01-30T09:47:36.231072
MEAN_MOTION    = 15.27364796
ECCENTRICITY   = .0010623
INCLINATION    = 82.5220
RA_OF_ASC_NODE = 156.0798
ARG_OF_PERICENTER = 308.5797
MEAN_ANOMALY   = 51.4489

EPHEMERIS_TYPE = 0
CLASSIFICATION_TYPE = U
NORAD_CAT_ID   = 19573
ELEMENT_SET_NO = 999
REV_AT_EPOCH   = 1356
BSTAR          = .48201E-3
MEAN_MOTION_DOT = .1297E-3
MEAN_MOTION_DDOT = 0

CCSDS_OMM_VERS = 2.0
CREATION_DATE  = 
ORIGINATOR     = 

OBJECT_NAME    = SL-14 R/B
OBJECT_ID      = 1988-093B
CENTER_NAME    = EARTH
REF_FRAME      = TEME
TIME_SYSTEM    = UTC
MEAN_ELEMENT_THEORY = SGP/SGP4

EPOCH          = 2026-01-30T09:30:38.513376
MEAN_MOTION    = 14.85613693
ECCENTRICITY   = .0021197
INCLINATION    = 82.5287
RA_OF_ASC_NODE = 78.0017
ARG_OF_PERICENTER = 160.8735
MEAN_ANOMALY   = 209.7150

EPHEMERIS_TYPE = 0
CLASSIFICATION_TYPE = U
NORAD_CAT_ID   = 19574
ELEMENT_SET_NO = 999
REV_AT_EPOCH   = 99535
BSTAR          = .70069E-4
MEAN_MOTION_DOT = .633E-5
MEAN_MOTION_DDOT = 0

CCSDS_OMM_VERS = 2.0
CREATION_DATE  = 
ORIGINATOR     = 

OBJECT_NAME    = SL-16 R/B
OBJECT_ID      = 1988-102B
CENTER_NAME    = EARTH
REF_FRAME      = TEME
TIME_SYSTEM    = UTC
MEAN_ELEMENT_THEORY = SGP/SGP4

EPOCH          = 2026-01-29T23:38:24.370656
MEAN_MOTION    = 14.16147078
ECCENTRICITY   = .00120263
INCLINATION    = 70.9973
RA_OF_ASC_NODE = 232.9324
ARG_OF_PERICENTER = 65.9286
MEAN_ANOMALY   = 294.3094

EPHEMERIS_TYPE = 0
CLASSIFICATION_TYPE = U
NORAD_CAT_ID   = 19650
ELEMENT_SET_NO = 999
REV_AT_EPOCH   = 92141
BSTAR          = -.7915517E-4
MEAN_MOTION_DOT = -.204E-5
MEAN_MOTION_DDOT = 0

CCSDS_OMM_VERS = 2.0
CREATION_DATE  = 
ORIGINATOR     = 

OBJECT_NAME    = INTERCOSMOS 24
OBJECT_ID      = 1989-080A
CENTER_NAME    = EARTH
REF_FRAME      = TEME
TIME_SYSTEM    = UTC
MEAN_ELEMENT_THEORY = SGP/SGP4

EPOCH          = 2026-01-30T08:37:43.766112
MEAN_MOTION    = 12.59506707
ECCENTRICITY   = .1188552
INCLINATION    = 82.6076
RA_OF_ASC_NODE = 129.3476
ARG_OF_PERICENTER = 21.7995
MEAN_ANOMALY   = 342.9583

EPHEMERIS_TYPE = 0
CLASSIFICATION_TYPE = U
NORAD_CAT_ID   = 20261
ELEMENT_SET_NO = 999
REV_AT_EPOCH   = 66197
BSTAR          = .17487E-3
MEAN_MOTION_DOT = .613E-5
MEAN_MOTION_DDOT = 0

CCSDS_OMM_VERS = 2.0
CREATION_DATE  = 
ORIGINATOR     = 

OBJECT_NAME    = SL-14 R/B
OBJECT_ID      = 1989-080C
CENTER_NAME    = EARTH
REF_FRAME      = TEME
TIME_SYSTEM    = UTC
MEAN_ELEMENT_THEORY = SGP/SGP4

EPOCH          = 2026-01-30T11:13:52.044672
MEAN_MOTION    = 12.50450152
ECCENTRICITY   = .1229436
INCLINATION    = 82.5931
RA_OF_ASC_NODE = 197.7256
ARG_OF_PERICENTER = 272.1711
MEAN_ANOMALY   = 73.9436

EPHEMERIS_TYPE = 0
CLASSIFICATION_TYPE = U
NORAD_CAT_ID   = 20262
ELEMENT_SET_NO = 999
REV_AT_EPOCH   = 65537
BSTAR          = .11766E-3
MEAN_MOTION_DOT = .387E-5
MEAN_MOTION_DDOT = 0

CCSDS_OMM_VERS = 2.0
CREATION_DATE  = 
ORIGINATOR     = 

OBJECT_NAME    = DELTA 1 R/B
OBJECT_ID      = 1989-089B
CENTER_NAME    = EARTH
REF_FRAME      = TEME
TIME_SYSTEM    = UTC
MEAN_ELEMENT_THEORY = SGP/SGP4

EPOCH          = 2026-01-30T11:26:14.006400
MEAN_MOTION    = 14.50628381
ECCENTRICITY   = .0067729
INCLINATION    = 97.0731
RA_OF_ASC_NODE = 243.9858
ARG_OF_PERICENTER = 242.9689
MEAN_ANOMALY   = 116.4585

EPHEMERIS_TYPE = 0
CLASSIFICATION_TYPE = U
NORAD_CAT_ID   = 20323
ELEMENT_SET_NO = 999
REV_AT_EPOCH   = 89019
BSTAR          = .15732E-3
MEAN_MOTION_DOT = .6E-5
MEAN_MOTION_DDOT = 0

CCSDS_OMM_VERS = 2.0
CREATION_DATE  = 
ORIGINATOR     = 

OBJECT_NAME    = ARIANE 40 R/B
OBJECT_ID      = 1990-005H
CENTER_NAME    = EARTH
REF_FRAME      = TEME
TIME_SYSTEM    = UTC
MEAN_ELEMENT_THEORY = SGP/SGP4

EPOCH          = 2026-01-30T04:13:39.449856
MEAN_MOTION    = 14.39843070
ECCENTRICITY   = .0009354
INCLINATION    = 98.3166
RA_OF_ASC_NODE = 91.9691
ARG_OF_PERICENTER = 325.8683
MEAN_ANOMALY   = 34.1904

EPHEMERIS_TYPE = 0
CLASSIFICATION_TYPE = U
NORAD_CAT_ID   = 20443
ELEMENT_SET_NO = 999
REV_AT_EPOCH   = 88726
BSTAR          = .14554E-3
MEAN_MOTION_DOT = .415E-5
MEAN_MOTION_DDOT = 0

